QIANFAN-17              
1 60395U 24140S   26001.58317017  .00000192  00000+0  27912-3 0  9990
2 60395  88.9787 297.3849 0015568 141.8925 218.3331 13.50981600 70819
QIANFAN-18              
1 60396U 24140T   26001.63665003  .00000180  00000+0  26051-3 0  9998
2 60396  88.9780 296.9115 0015395 125.1837 235.0759 13.50981685 70216
QIANFAN-19              
1 61552U 24185A   26001.60727239  .00000855  00000+0  44027-3 0  9991
2 61552  88.9808  75.6684 0005392 226.4981 133.5759 14.14319645 72470
QIANFAN-20              
1 61553U 24185B   26001.64561604  .00000908  00000+0  51829-3 0  9995
2 61553  88.9807  76.0078 0003606 283.4417  76.6365 14.08866700 72297
QIANFAN-21              
1 61554U 24185C   26001.58575537  .00001164  00000+0  51434-3 0  9996
2 61554  88.9723  74.6584 0008529 303.8678  56.1701 14.22639234 72794
QIANFAN-22              
1 61555U 24185D   26001.63884408  .00000323  00000+0  26808-3 0  9996
2 61555  88.9791  77.0696 0004495 302.7435  57.3303 13.86311762 71699
QIANFAN-23              
1 61556U 24185E   26001.62533975  .00000851  00000+0  42217-3 0  9994
2 61556  88.9800  75.4665 0005765 242.6627 117.3974 14.16315088 72562
QIANFAN-24              
1 61557U 24185F   26001.64198540  .00001153  00000+0  49788-3 0  9998
2 61557  88.9781  74.8370 0008049 222.0005 138.0571 14.23840600 72853
